Origin Time       2013/12/15 00:13:00
Lat.              34.738
Long.             135.757
Depth. (km)       14
Mag.              3.8
Station Code      OSK007
Station Lat.      34.5577
Station Long.     135.6058
Station Height(m) 29
Record Time       2013/12/15 00:14:01
Sampling Freq(Hz) 100Hz
Duration Time(s)  60
Dir.              N-S
Scale Factor      3920(gal)/6182761
Max. Acc. (gal)   4.008
Last Correction   2013/12/15 00:14:01
Memo.             
[...]
  -12307   -12312   -12312   -12325   -12318   -12288   -12301   -12319 
  -12309   -12314   -12316   -12306   -12292   -12294   -12321   -12322 
  -12311   -12318   -12320   -12316   -12300   -12292   -12305   -12322 
  -12330   -12302   -12283   -12303   -12305   -12305   -12334   -12335 
  -12298   -12290   -12296   -12308   -12339   -12330   -12296   -12289 
  -12303   -12321   -12315   -12304   -12300   -12291   -12305   -12303 
  -12283   -12313   -12322   -12298   -12310   -12311   -12280   -12280 
  -12341   -12346   -12271   -12297   -12334   -12281   -12294   -12319 
  -12296   -12302   -12312   -12310   -12304   -12310   -12320   -12309 
  -12307   -12292   -12275   -12307   -12304   -12277   -12316   -12347 
  -12329   -12310   -12303   -12291   -12276   -12296   -12320   -12311 
  -12292   -12273   -12290   -12331   -12335   -12309   -12304   -12329 
  -12316   -12279   -12299   -12304   -12288   -12326   -12333   -12283 
  -12262   -12294   -12328   -12337   -12336   -12312   -12282   -12290 
  -12316   -12324   -12304   -12292   -12305   -12311   -12316   -12315 
  -12297   -12291   -12287   -12301   -12340   -12327   -12290   -12293 
  -12304   -12310   -12325   -12337   -12317   -12292   -12306   -12314 
  -12316   -12312   -12277   -12282   -12319   -12322   -12328   -12323 
  -12293   -12301   -12319   -12322   -12314   -12282   -12293   -12323 
  -12300   -12302   -12320   -12313   -12323   -12318   -12303   -12305 
  -12306   -12320   -12307   -12287   -12307   -12313   -12311   -12308 
  -12293   -12314   -12331   -12316   -12309   -12290   -12288   -12318 
  -12326   -12310   -12295   -12301   -12312   -12307   -12308   -12304 
  -12303   -12311   -12301   -12312   -12321   -12298   -12301   -12295 
  -12276   -12297   -12310   -12316   -12320   -12293   -12296   -12326 
  -12319   -12302   -12301   -12305   -12295   -12278   -12289   -12308 
  -12311   -12307   -12286   -12289   -12329   -12332   -12321   -12316 
  -12284   -12283   -12306   -12303   -12299   -12300   -12315   -12316 
  -12293   -12303   -12305   -12299   -12324   -12324   -12313   -12307 
  -12290   -12290   -12282   -12285   -12303   -12306   -12320   -12316 
  -12302   -12316   -12307   -12295   -12307   -12315   -12312   -12309 
  -12326   -12319   -12282   -12286   -12304   -12310   -12306   -12292 
  -12308   -12321   -12317   -12313   -12292   -12293   -12313   -12313 
  -12313   -12313   -12320   -12328   -12315   -12299   -12290   -12293 
  -12303   -12308   -12318   -12318   -12303   -12295   -12309   -12333 
  -12322   -12304   -12305   -12293   -12299   -12309   -12304   -12321 
  -12312   -12296   -12325   -12320   -12293   -12299   -12296   -12290 
  -12300   -12317   -12322   -12312   -12306   -12308   -12305   -12301 
  -12297   -12295   -12299   -12291   -12300   -12333   -12324   -12300 
  -12297   -12297   -12318   -12336   -12337   -12322   -12276   -12286 
  -12325   -12293   -12276   -12296   -12313   -12335   -12324   -12327 
  -12321   -12252   -12255   -12332   -12363   -12337   -12285   -12265 
  -12268   -12292   -12356   -12344   -12269   -12264   -12315   -12357 
  -12340   -12292   -12293   -12292   -12283   -12327   -12350   -12311 
  -12270   -12277   -12308   -12303   -12329   -12359   -12289   -12258 
  -12323   -12353   -12327   -12284   -12274   -12305   -12311   -12295 
  -12299   -12327   -12323   -12291   -12328   -12357   -12291   -12254 
  -12268   -12295   -12352   -12384   -12334   -12239   -12233   -12330 
  -12363   -12303   -12272   -12311   -12350   -12333   -12294   -12275 
  -12278   -12301   -12319   -12313   -12299   -12299   -12327   -12357 
  -12326   -12251   -12230   -12281   -12347   -12389   -12361   -12276 
  -12212   -12242   -12352   -12392   -12338   -12291   -12267   -12280 
  -12323   -12339   -12313   -12268   -12276   -12317   -12322   -12324 
  -12298   -12271   -12310   -12326   -12318   -12324   -12293   -12287 
  -12311   -12318   -12325   -12286   -12246   -12264   -12288   -12328 
  -12349   -12323   -12305   -12286   -12284   -12303   -12303   -12310 
  -12305   -12296   -12321   -12325   -12324   -12312   -12268   -12283 
  -12320   -12314   -12306   -12291   -12298   -12315   -12302   -12312 
  -12307   -12283   -12298   -12310   -12317   -12315   -12290   -12285 
  -12282   -12303   -12343   -12330   -12313   -12312   -12299   -12299 
  -12297   -12300   -12309   -12294   -12302   -12321   -12314   -12311 
  -12306   -12300   -12306   -12305   -12315   -12331   -12311   -12290 
  -12294   -12302   -12318   -12324   -12311   -12310   -12299   -12281 
  -12291   -12300   -12306   -12314   -12316   -12322   -12307   -12297 
  -12309   -12290   -12281   -12305   -12325   -12339   -12324   -12318 
  -12322   -12286   -12294   -12318   -12307   -12317   -12289   -12264 
  -12313   -12340   -12342   -12313   -12269   -12289   -12303   -12318 
  -12337   -12287   -12286   -12321   -12304   -12317   -12309   -12297 
  -12315   -12305   -12318   -12301   -12262   -12295   -12315   -12335 
  -12349   -12305   -12289   -12278   -12286   -12345   -12346   -12311 
  -12286   -12278   -12310   -12329   -12341   -12343   -12305   -12285 
  -12283   -12295   -12324   -12322   -12317   -12306   -12268   -12269 
  -12308   -12326   -12324   -12311   -12303   -12311   -12309   -12306 
  -12313   -12308   -12310   -12323   -12323   -12319   -12302   -12297 
  -12316   -12311   -12310   -12310   -12299   -12316   -12308   -12297 
  -12320   -12308   -12311   -12325   -12297   -12300   -12307   -12303 
  -12311   -12301   -12322   -12329   -12299   -12310   -12307   -12309 
  -12327   -12301   -12304   -12313   -12301   -12312   -12304   -12306 
  -12308   -12295   -12316   -12304   -12300   -12324   -12296   -12297 
  -12321   -12313   -12311   -12288   -12293   -12333   -12330   -12308 
  -12285   -12295   -12313   -12289   -12299   -12313   -12308   -12331 
  -12311   -12286   -12312   -12315   -12316   -12319   -12295   -12298 
  -12319   -12323   -12322   -12314   -12300   -12278   -12280   -12321 
  -12334   -12309   -12297   -12298   -12300   -12308   -12316   -12318 
  -12311   -12301   -12295   -12301   -12316   -12328   -12329   -12297 
  -12271   -12301   -12327   -12324   -12307   -12282   -12292   -12300 
  -12297   -12324   -12328   -12321   -12322   -12297   -12289   -12289 
  -12301   -12345   -12353   -12327   -12286   -12263   -12300   -12337 
  -12339   -12316   -12290   -12287   -12285   -12302   -12325   -12324 
  -12337   -12318   -12286   -12295   -12292   -12301   -12323   -12316 
  -12318   -12317   -12317   -12331   -12315   -12294   -12288   -12286 
  -12303   -12309   -12303   -12320   -12319   -12292   -12303   -12320 
  -12301   -12300   -12319   -12327   -12319   -12295   -12282   -12299 
  -12329   -12338   -12317   -12290   -12275   -12294   -12325   -12315 
  -12302   -12313   -12313   -12308   -12311   -12310   -12303   -12307 
  -12316   -12309   -12311   -12306   -12274   -12272   -12303   -12335 
  -12348   -12308   -12268   -12287   -12318   -12323   -12286   -12260 
  -12307   -12360   -12356   -12304   -12235   -12240   -12316   -12374 
  -12366   -12290   -12246   -12285   -12317   -12319   -12306   -12292 
  -12305   -12304   -12298   -12316   -12315   -12306   -12311   -12313 
  -12316   -12305   -12297   -12298   -12293   -12310   -12325   -12310 
  -12305   -12294   -12290   -12313   -12306   -12293   -12302   -12307 
  -12314   -12316   -12304   -12288   -12292   -12314   -12311   -12294 
  -12298   -12313   -12319   -12307   -12298   -12300   -12290   -12288 
  -12302   -12310   -12324   -12326   -12299   -12285   -12293   -12304 
  -12317   -12316   -12303   -12302   -12308   -12300   -12288   -12296 
  -12313   -12319   -12317   -12307   -12293   -12287   -12294   -12311 
  -12322   -12315   -12300   -12279   -12269   -12288   -12316   -12329 
  -12327   -12304   -12294   -12312   -12306   -12277   -12286   -12326 
  -12339   -12320   -12297   -12273   -12265   -12294   -12322   -12320 
  -12315   -12316   -12322   -12326   -12301   -12278   -12283   -12291 
  -12307   -12317   -12312   -12308   -12312   -12322   -12306   -12287 
  -12303   -12310   -12307   -12300   -12291   -12308   -12314   -12305 
  -12316   -12311   -12285   -12288   -12316   -12326   -12304   -12284 
  -12300   -12324   -12314   -12297   -12302   -12312   -12322   -12321 
  -12297   -12269   -12280   -12319   -12335   -12327   -12296   -12267 
  -12308   -12343   -12315   -12303   -12305   -12310   -12328   -12293 
  -12244   -12269   -12339   -12370   -12318   -12255   -12263   -12312 
  -12340   -12336   -12309   -12276   -12280   -12316   -12328   -12315 
  -12316   -12317   -12314   -12309   -12277   -12274   -12315   -12326 
  -12333   -12340   -12308   -12291   -12305   -12329   -12331   -12285 
  -12257   -12283   -12319   -12346   -12325   -12267   -12265   -12318 
  -12355   -12363   -12324   -12270   -12271   -12305   -12322   -12330 
  -12324   -12293   -12273   -12271   -12292   -12343   -12348   -12306 
  -12292   -12288   -12299   -12331   -12322   -12290   -12276   -12297 
  -12344   -12342   -12320   -12320   -12287   -12287   -12338   -12322 
  -12282   -12281   -12286   -12316   -12343   -12313   -12289   -12310 
  -12318   -12306   -12317   -12325   -12297   -12291   -12311   -12292 
  -12287   -12340   -12350   -12296   -12264   -12266   -12291   -12330 
  -12321   -12295   -12314   -12290   -12249   -12333   -12409   -12370 
  -12344   -12243   -12103   -12322   -12699   -12539   -11976   -11845 
  -12417   -12907   -12542   -11871   -11677   -11984   -12883   -13342 
  -12052   -11054   -12185   -13142   -12612   -12181   -12161   -12035 
  -12187   -12484   -12534   -12428   -12049   -11985   -12826   -12932 
  -11764   -11548   -12370   -12681   -12568   -12235   -11883   -12134 
  -12632   -12684   -12333   -11874   -11930   -12865   -13056   -11752 
  -11466   -12719   -13013   -12163   -11881   -12353   -12569   -12276 
  -12102   -12116   -12034   -12256   -12714   -12442   -11923   -12274 
  -12665   -12438   -12297   -12412   -12471   -12286   -12022   -12160 
  -12431   -12224   -12035   -12294   -12331   -12204   -12425   -12458 
  -12164   -12128   -12247   -12218   -12369   -12751   -12704   -12267 
  -12189   -12466   -12525   -12170   -12010   -12499   -12784   -12204 
  -11676   -12135   -12842   -12596   -12019   -12116   -12219   -12000 
  -12135   -12564   -12706   -12238   -11625   -11912   -12787   -12932 
  -12462   -12277   -12297   -12250   -12180   -12049   -12183   -12594 
  -12506   -12022   -12031   -12328   -12276   -12251   -12539   -12700 
  -12665   -12554   -12254   -11965   -12027   -12308   -12343   -12166 
  -12284   -12464   -12226   -11992   -11981   -12052   -12608   -13055 
  -12399   -11898   -12509   -12676   -12017   -12081   -12587   -12285 
  -12020   -12490   -12492   -11835   -11852   -12623   -12935   -12468 
  -11911   -11903   -12469   -12772   -12537   -12394   -12284   -12157 
  -12045   -11654   -11773   -12661   -13036   -12589   -12092   -12132 
  -12615   -12704   -12215   -12061   -12460   -12567   -12208   -11852 
  -11665   -11993   -12871   -13189   -12376   -11703   -11963   -12361 
  -12579   -12591   -12070   -11599   -11834   -12430   -12790   -12583 
  -12139   -12267   -12678   -12366   -11976   -12381   -12533   -12117 
  -12252   -12765   -12778   -12255   -11749   -11960   -12640   -12734 
  -12277   -11975   -11963   -12452   -13058   -12661   -11870   -11889 
  -12121   -12098   -12280   -12420   -12158   -11857   -11849   -12385 
  -13075   -12933   -12448   -12248   -11744   -11589   -12419   -12812 
  -12312   -12095   -12124   -12056   -12470   -12997   -12927   -12508 
  -12114   -12098   -12294   -12194   -12113   -12288   -12427   -12566 
  -12464   -11891   -11692   -12239   -12775   -12822   -12346   -11950 
  -12161   -12212   -11816   -11822   -12280   -12584   -12654   -12601 
  -12136   -11479   -11944   -13322   -13370   -12072   -11642   -12297 
  -12656   -12553   -12477   -12384   -12364   -12385   -12119   -11884 
  -12073   -12431   -12502   -12229   -12233   -12613   -12349   -11625 
  -11829   -12572   -12874   -12714   -11984   -11565   -12360   -13092 
  -12590   -11846   -11926   -12256   -12427   -12591   -12285   -11828 
  -12329   -13223   -12983   -12174   -12064   -12094   -12033   -12197 
  -12020   -11703   -11873   -12584   -13346   -12989   -12002   -11973 
  -12240   -11860   -11956   -12935   -13147   -12216   -11655   -11982 
  -12661   -12966   -12632   -12217   -11697   -11254   -11811   -12805 
  -12944   -12711   -12851   -12107   -10850   -11724   -13368   -12852 
  -11693   -11949   -12742   -12770   -12190   -12018   -12491   -12673 
  -12530   -12765   -12365   -11387   -11861   -12658   -11887   -11265 
  -11975   -12759   -12916   -12748   -12614   -12780   -12906   -12591 
  -12269   -11914   -11606   -12137   -12765   -12449   -11980   -12211 
  -12661   -12754   -12698   -12269   -11440   -11560   -12665   -12887 
  -12182   -12277   -13336   -14151   -13608   -11676   -10348   -11028 
  -12323   -12381   -11384   -11257   -12466   -13024   -12392   -12054 
  -12129   -11833   -11486   -11091   -10121    -9601   -10332   -11378 
  -12200   -12761   -13331   -14233   -14437   -13508   -12898   -13261 
  -13831   -13946   -13105   -11752   -11613   -12853   -13716   -13958 
  -14525   -14544   -12718   -10393   -10045   -11958   -14464   -15342 
  -13212   -10037    -8995    -9541    -9026    -7636    -7803    -9915 
  -11876   -12321   -11392   -10089   -10836   -14794   -18558   -18629 
  -16878   -16164   -15396   -14274   -14829   -15579   -13937   -11349 
   -9627    -9214   -10588   -12296   -12565   -12180   -11802   -10584 
   -8852    -8410    -9401   -10259   -10691   -11200   -11775   -12665 
  -13584   -13309   -11842   -10668   -10559   -11151   -12112   -13242 
  -13916   -13409   -12364   -12754   -14782   -16497   -16959   -16396 
  -15130   -13800   -12570   -11037    -9552    -9031    -9326    -9667 
  -10132   -10969   -12310   -13657   -13317   -11633   -11085   -11703 
  -11761   -11351   -11670   -12684   -13302   -13005   -12702   -13971 
  -16121   -16263   -14282   -12517   -11262   -10419   -11177   -12843 
  -13363   -12748   -11923   -10886   -10269   -11067   -12341   -12457 
  -11694   -11092   -10686   -10658   -11396   -12224   -12363   -11910 
  -11350   -10711    -9645    -8918    -9793   -11732   -13305   -14456 
  -15643   -16353   -16209   -15762   -15131   -13911   -13012   -13448 
  -14003   -13349   -11906   -10308    -8878    -8172    -8316    -9020 
  -10539   -12686   -14362   -15190   -15370   -14876   -13871   -12635 
  -11226    -9736    -8934    -9659   -11389   -13107   -14472   -15023 
  -14297   -12811   -11682   -11596   -12287   -12840   -12552   -11820 
  -11796   -12628   -13343   -13411   -12969   -12487   -12586   -13084 
  -13050   -12135   -10753    -9879   -10578   -12150   -12713   -12213 
  -12104   -12764   -13297   -13130   -12538   -11747   -10748   -10021 
  -10287   -11305   -11968   -11950   -12017   -12807   -14150   -15170 
  -15045   -13857   -12570   -11865   -11443   -11042   -10523    -9583 
   -8916    -9485   -11071   -12908   -14032   -14047   -14271   -15474 
  -16150   -15438   -14148   -12779   -11683   -11130   -10809   -10734 
  -11086   -11702   -12397   -12770   -12721   -12625   -12303   -11668 
  -11326   -11380   -11502   -11663   -11823   -11891   -11915   -12034 
  -12436   -13230   -14294   -15032   -14585   -13162   -12101   -11916 
  -12127   -12225   -11644   -10446    -9719   -10135   -10994   -11494 
  -12061   -12811   -12649   -11902   -12334   -13702   -14232   -13837 
  -13481   -12926   -12124   -12242   -13211   -13743   -13651   -13082 
  -11657   -10007    -9589   -10504   -11347   -11325   -11107   -11419 
  -12156   -12972   -13658   -14001   -13819   -13330   -13074   -13068 
  -13051   -12952   -12266   -11096   -10663   -11013   -11345   -11907 
  -12797   -13257   -12950   -12454   -12651   -13397   -13512   -12819 
  -12164   -11647   -11368   -11950   -12489   -11778   -11218   -11992 
  -12840   -13206   -13371   -12829   -11947   -11806   -12253   -12575 
  -12391   -11478   -10608   -10876   -11668   -11998   -12161   -12403 
  -12455   -12462   -12536   -12381   -12339   -12747   -12949   -12859 
  -12991   -13019   -12613   -12015   -11375   -11094   -11784   -12956 
  -13292   -12398   -11158   -10779   -11724   -13241   -14110   -13663 
  -12291   -11347   -11794   -12799   -13018   -12490   -11801   -11245 
  -11251   -11831   -12654   -13514   -13740   -13056   -12544   -12945 
  -13248   -12324   -10861   -10255   -10950   -12415   -13423   -13175 
  -12171   -11422   -11795   -12994   -13364   -12440   -11604   -11525 
  -11686   -11977   -12481   -12708   -12451   -12134   -12080   -11982 
  -11328   -10886   -11683   -12910   -13781   -14402   -14338   -13655 
  -13175   -13020   -12944   -12995   -13029   -12545   -11392   -10219 
   -9964   -10813   -11947   -12609   -12673   -12380   -12319   -12636 
  -12593   -11986   -11533   -11679   -12318   -13116   -13540   -13109 
  -12202   -11913   -12314   -12508   -12285   -11762   -11143   -11186 
  -11847   -12142   -12092   -12371   -12701   -12539   -12182   -12214 
  -12709   -13303   -13402   -12641   -11673   -11468   -11979   -12395 
  -12186   -11771   -11947   -12693   -13295   -13242   -12690   -12226 
  -12078   -11903   -11652   -11748   -11934   -11656   -11437   -11953 
  -12785   -13124   -12882   -12653   -12719   -12839   -12896   -12974 
  -12996   -12877   -12661   -12306   -11866   -11485   -11317   -11591 
  -12019   -11970   -11543   -11370   -11721   -12122   -11995   -11786 
  -12104   -12496   -12618   -12776   -13020   -13331   -13663   -13570 
  -12981   -12345   -11808   -11394   -11417   -12000   -12540   -12300 
  -11580   -11237   -11399   -11871   -12692   -13608   -14189   -14207 
  -13566   -12569   -11854   -11728   -11930   -11992   -11722   -11232 
  -10863   -11193   -12206   -13007   -13131   -12906   -12577   -12196 
  -11929   -11953   -12279   -12663   -12801   -12714   -12566   -12324 
  -12135   -12287   -12504   -12392   -12280   -12412   -12313   -11848 
  -11636   -12088   -12826   -13183   -13171   -13258   -13323   -13013 
  -12434   -11918   -11765   -11833   -11723   -11532   -11515   -11581 
  -11668   -11844   -11996   -11994   -11944   -11889   -11812   -11897 
  -12197   -12640   -13149   -13385   -13182   -12870   -12762   -12825 
  -12739   -12347   -12122   -12405   -12620   -12416   -12237   -11997 
  -11374   -10968   -11151   -11516   -12007   -12514   -12490   -12169 
  -12223   -12510   -12706   -12643   -12179   -11849   -12144   -12608 
  -12879   -13024   -12920   -12678   -12691   -12895   -13005   -12977 
  -12718   -12207   -11729   -11419   -11367   -11727   -12132   -12175 
  -11973   -11735   -11777   -12273   -12655   -12398   -11956   -11885 
  -12024   -12214   -12561   -12919   -12980   -12712   -12498   -12616 
  -12878   -13066   -13053   -12701   -12205   -12026   -12196   -12293 
  -12233   -12304   -12501   -12452   -12110   -11931   -12039   -12227 
  -12550   -12836   -12717   -12353   -12049   -11769   -11554   -11642 
  -11894   -11859   -11658   -11754   -11993   -12137   -12474   -13013 
  -13221   -12870   -12448   -12404   -12507   -12536   -12627   -12730 
